NORAD_CAT_ID,OBJECT_NAME,OBJECT_TYPE,EPOCH,MEAN_MOTION,ECCENTRICITY,INCLINATION,RA_OF_ASC_NODE,ARG_OF_PERICENTER,MEAN_ANOMALY,BSTAR,MEAN_MOTION_DOT,MEAN_MOTION_DDOT,TLE_LINE0,TLE_LINE1,TLE_LINE2,SEMIMAJOR_AXIS,PERIOD,APOGEE,PERIGEE,DECAYED
49148.0,STARLINK-3048,PAYLOAD,2023-08-29 00:56:50,14.98329472,0.0002967,69.9993,83.2922,269.2754,90.8066,7.4443e-05,7.95e-06,0.0,0 STARLINK-3048,1 49148U 21082U   23241.03946908  .00000795  00000-0  74443-4 0  9997,2 49148  69.9993  83.2922 0002967 269.2754  90.8066 14.98329472109242,6950.195,96.107,574.122,569.997,0.0
49148.0,STARLINK-3048,PAYLOAD,2023-08-29 20:10:26,14.98333602,0.0002783,69.9994,81.2729,260.8622,99.2222,4.2804e-05,4.18e-06,0.0,0 STARLINK-3048,1 49148U 21082U   23241.84058606  .00000418  00000-0  42804-4 0  9993,2 49148  69.9994  81.2729 0002783 260.8622  99.2222 14.98333602108238,6950.182,96.107,573.981,570.113,0.0
49148.0,STARLINK-3048,PAYLOAD,2023-08-30 00:58:48,14.98362473,0.0002941,69.9991,80.7668,273.1626,86.9196,0.00035237,4.117e-05,0.0,0 STARLINK-3048,1 49148U 21082U   23242.04083909  .00004117  00000-0  35237-3 0  9991,2 49148  69.9991  80.7668 0002941 273.1626  86.9196 14.98362473109397,6950.092,96.105,574.001,569.913,0.0
49148.0,STARLINK-3048,PAYLOAD,2023-08-30 13:47:55,14.98329533,0.000299,69.9992,79.4203,269.4589,90.6228,2.5075e-05,2.06e-06,0.0,0 STARLINK-3048,1 49148U 21082U   23242.57494511  .00000206  00000-0  25075-4 0  9999,2 49148  69.9992  79.4203 0002990 269.4589  90.6228 14.98329533109475,6950.194,96.107,574.137,569.981,0.0
49148.0,STARLINK-3048,PAYLOAD,2023-08-30 20:12:27,14.98335728,0.0002045,70.0002,78.7497,277.8105,82.2822,9.7663e-05,1.073e-05,0.0,0 STARLINK-3048,1 49148U 21082U   23242.84198018  .00001073  00000-0  97663-4 0  9997,2 49148  70.0002  78.7497 0002045 277.8105  82.2822 14.98335728108384,6950.175,96.107,573.461,570.619,0.0
49148.0,STARLINK-3048,PAYLOAD,2023-08-31 12:13:48,14.98325437,0.0003042,70.0006,77.0639,266.7663,93.3148,-1.8697e-05,-3.16e-06,0.0,0 STARLINK-3048,1 49148U 21082U   23243.50958924 -.00000316  00000-0 -18697-4 0  9992,2 49148  70.0006  77.0639 0003042 266.7663  93.3148 14.98325437108483,6950.207,96.107,574.186,569.958,0.0
49148.0,STARLINK-3048,PAYLOAD,2023-08-31 23:26:44,14.98322027,0.0002627,70.0007,75.8856,249.1731,110.9147,0.00010708,1.185e-05,0.0,0 STARLINK-3048,1 49148U 21082U   23243.97690891  .00001185  00000-0  10708-3 0  9996,2 49148  70.0007  75.8856 0002627 249.1731 110.9147 14.98322027109680,6950.218,96.108,573.908,570.257,0.0
49148.0,STARLINK-3048,PAYLOAD,2023-09-01 05:51:16,14.98334302,0.0003,70.0001,75.2123,250.8571,109.2263,-0.00010055,-1.293e-05,0.0,0 STARLINK-3048,1 49148U 21082U   23244.24394544 -.00001293  00000-0 -10055-3 0  9990,2 49148  70.0001  75.2123 0003000 250.8571 109.2263 14.98334302109726,6950.18,96.107,574.13,569.96,0.0
49148.0,STARLINK-3048,PAYLOAD,2023-09-01 18:40:21,14.98328341,0.0002945,69.9982,73.8654,269.1888,90.8933,8.772e-05,9.54e-06,0.0,0 STARLINK-3048,1 49148U 21082U   23244.77802522  .00000954  00000-0  87720-4 0  9993,2 49148  69.9982  73.8654 0002945 269.1888  90.8933 14.98328341108673,6950.198,96.107,574.11,570.016,0.0
49148.0,STARLINK-3048,PAYLOAD,2023-09-02 05:53:17,14.9832806,0.0003035,69.9964,72.6869,271.0601,89.021,8.5751e-05,9.3e-06,0.0,0 STARLINK-3048,1 49148U 21082U   23245.24534626  .00000930  00000-0  85751-4 0  9999,2 49148  69.9964  72.6869 0003035 271.0601  89.0210 14.98328060109873,6950.199,96.107,574.173,569.955,0.0
49148.0,STARLINK-3048,PAYLOAD,2023-09-02 12:17:50,14.9832558,0.0002947,69.9971,72.0135,271.007,89.0752,5.0674e-05,5.12e-06,0.0,0 STARLINK-3048,1 49148U 21082U   23245.51238952  .00000512  00000-0  50674-4 0  9994,2 49148  69.9971  72.0135 0002947 271.0070  89.0752 14.98325580108786,6950.207,96.107,574.12,570.023,0.0
49148.0,STARLINK-3048,PAYLOAD,2023-09-02 18:42:22,14.98327972,0.0002957,69.9996,71.3406,270.0247,90.0573,5.2638e-05,5.35e-06,0.0,0 STARLINK-3048,1 49148U 21082U   23245.77942865  .00000535  00000-0  52638-4 0  9994,2 49148  69.9996  71.3406 0002957 270.0247  90.0573 14.98327972108827,6950.199,96.107,574.119,570.009,0.0
49148.0,STARLINK-3048,PAYLOAD,2023-09-02 21:54:41,14.98289864,0.0002664,69.9999,71.0036,270.7268,89.3586,-0.00038536,-4.683e-05,0.0,0 STARLINK-3048,1 49148U 21082U   23245.91298251 -.00004683  00000-0 -38536-3 0  9993,2 49148  69.9999  71.0036 0002664 270.7268  89.3586 14.98289864109970,6950.317,96.11,574.034,570.33,0.0
49148.0,STARLINK-3048,PAYLOAD,2023-09-03 05:55:18,14.98330692,0.0003061,69.9998,70.1617,269.927,90.1539,6.0662e-05,6.31e-06,0.0,0 STARLINK-3048,1 49148U 21082U   23246.24674696  .00000631  00000-0  60662-4 0  9994,2 49148  69.9998  70.1617 0003061 269.9270  90.1539 14.98330692110021,6950.191,96.107,574.183,569.928,0.0
49148.0,STARLINK-3048,PAYLOAD,2023-09-04 10:45:44,14.98328496,0.0003,70.0002,67.1323,270.2163,89.8652,6.3379e-05,6.63e-06,0.0,0 STARLINK-3048,1 49148U 21082U   23247.44842728  .00000663  00000-0  63379-4 0  9993,2 49148  70.0002  67.1323 0003000 270.2163  89.8652 14.98328496110209,6950.198,96.107,574.148,569.977,0.0
49148.0,STARLINK-3048,PAYLOAD,2023-09-04 20:22:32,14.98328947,0.0002954,70.0003,66.1225,270.2118,89.8702,-1.5882e-05,-2.82e-06,0.0,0 STARLINK-3048,1 49148U 21082U   23247.84898918 -.00000282  00000-0 -15882-4 0  9994,2 49148  70.0003  66.1225 0002954 270.2118  89.8702 14.98328947109134,6950.196,96.107,574.114,570.008,0.0
49148.0,STARLINK-3048,PAYLOAD,2023-09-05 18:48:25,14.98328597,0.0002963,70.0006,63.7666,269.9703,90.1116,-1.1192e-05,-2.27e-06,0.0,0 STARLINK-3048,1 49148U 21082U   23248.78363059 -.00000227  00000-0 -11192-4 0  9990,2 49148  70.0006  63.7666 0002963 269.9703  90.1116 14.98328597110401,6950.197,96.107,574.122,570.003,0.0
49148.0,STARLINK-3048,PAYLOAD,2023-09-06 04:25:13,14.98335287,0.0003062,70.0004,62.7567,270.2759,89.8049,7.4861e-05,8e-06,0.0,0 STARLINK-3048,1 49148U 21082U   23249.18418150  .00000800  00000-0  74861-4 0  9995,2 49148  70.0004  62.7567 0003062 270.2759  89.8049 14.98335287110465,6950.177,96.107,574.17,569.913,0.0
49148.0,STARLINK-3048,PAYLOAD,2023-09-06 20:26:34,14.98331007,0.0003194,70.0002,61.0734,272.6793,87.4,7.14e-05,7.59e-06,0.0,0 STARLINK-3048,1 49148U 21082U   23249.85178326  .00000759  00000-0  71400-4 0  9996,2 49148  70.0002  61.0734 0003194 272.6793  87.4000 14.98331007109433,6950.19,96.107,574.275,569.835,0.0
49148.0,STARLINK-3048,PAYLOAD,2023-09-07 10:51:47,14.98292739,0.0002724,70.0018,59.5568,269.9757,90.109,0.00064799,7.64e-05,0.0,0 STARLINK-3048,1 49148U 21082U   23250.45262775  .00007640  00000-0  64799-3 0  9994,2 49148  70.0018  59.5568 0002724 269.9757  90.1090 14.98292739110658,6950.308,96.109,574.066,570.28,0.0
49148.0,STARLINK-3048,PAYLOAD,2023-09-07 22:04:43,14.98306307,0.0002959,70.0012,58.3789,268.5906,91.4914,0.00044504,5.218e-05,0.0,0 STARLINK-3048,1 49148U 21082U   23250.91995184  .00005218  00000-0  44504-3 0  9993,2 49148  70.0012  58.3789 0002959 268.5906  91.4914 14.98306307110729,6950.266,96.109,574.188,570.075,0.0
49148.0,STARLINK-3048,PAYLOAD,2023-09-08 04:29:15,14.9833583,0.0003187,70.0002,57.7049,266.6212,93.4583,-9.0359e-05,-1.171e-05,0.0,0 STARLINK-3048,1 49148U 21082U   23251.18698259 -.00001171  00000-0 -90359-4 0  9992,2 49148  70.0002  57.7049 0003187 266.6212  93.4583 14.98335830110764,6950.175,96.107,574.255,569.825,0.0
49148.0,STARLINK-3048,PAYLOAD,2023-09-08 14:06:03,14.98331242,0.0003065,69.9997,56.695,269.8924,90.1884,2.7167e-05,2.31e-06,0.0,0 STARLINK-3048,1 49148U 21082U   23251.58754331  .00000231  00000-0  27167-4 0  9991,2 49148  69.9997  56.6950 0003065 269.8924  90.1884 14.98331242109694,6950.189,96.107,574.184,569.924,0.0
49148.0,STARLINK-3048,PAYLOAD,2023-09-08 20:30:35,14.98331284,0.0003065,70.0005,56.022,268.8333,91.2475,7.2567e-05,7.73e-06,0.0,0 STARLINK-3048,1 49148U 21082U   23251.85458195  .00000773  00000-0  72567-4 0  9995,2 49148  70.0005  56.0220 0003065 268.8333  91.2475 14.98331284109733,6950.189,96.107,574.184,569.924,0.0
49148.0,STARLINK-3048,PAYLOAD,2023-09-09 10:55:48,14.98330174,0.0003088,70.0005,54.5071,269.3659,90.7147,4.6785e-05,4.65e-06,0.0,0 STARLINK-3048,1 49148U 21082U   23252.45542314  .00000465  00000-0  46785-4 0  9990,2 49148  70.0005  54.5071 0003088 269.3659  90.7147 14.98330174110955,6950.192,96.107,574.204,569.911,0.0
49148.0,STARLINK-3048,PAYLOAD,2023-09-09 14:08:04,14.98330863,0.0003079,70.0005,54.1705,269.4551,90.6255,5.4817e-05,5.61e-06,0.0,0 STARLINK-3048,1 49148U 21082U   23252.58894270  .00000561  00000-0  54817-4 0  9997,2 49148  70.0005  54.1705 0003079 269.4551  90.6255 14.98330863109847,6950.19,96.107,574.195,569.915,0.0
49148.0,STARLINK-3048,PAYLOAD,2023-09-10 10:57:49,14.98331415,0.0003055,70.0008,51.9826,269.9569,90.124,3.4915e-05,3.24e-06,0.0,0 STARLINK-3048,1 49148U 21082U   23253.45682246  .00000324  00000-0  34915-4 0  9996,2 49148  70.0008  51.9826 0003055 269.9569  90.1240 14.98331415111102,6950.189,96.107,574.177,569.93,0.0
49148.0,STARLINK-3048,PAYLOAD,2023-09-10 14:10:05,14.98330591,0.0003067,70.0008,51.646,270.1179,89.9629,2.5219e-05,2.08e-06,0.0,0 STARLINK-3048,1 49148U 21082U   23253.59034320  .00000208  00000-0  25219-4 0  9993,2 49148  70.0008  51.6460 0003067 270.1179  89.9629 14.98330591109992,6950.191,96.107,574.188,569.924,0.0
49148.0,STARLINK-3048,PAYLOAD,2023-09-11 10:59:50,14.98331054,0.0003023,70.0014,49.4584,272.0191,88.0622,3.0547e-05,2.72e-06,0.0,0 STARLINK-3048,1 49148U 21082U   23254.45822284  .00000272  00000-0  30547-4 0  9994,2 49148  70.0014  49.4584 0003023 272.0191  88.0622 14.98331054111258,6950.19,96.107,574.156,569.954,0.0
49148.0,STARLINK-3048,PAYLOAD,2023-09-11 14:12:06,14.98331496,0.0003027,70.0014,49.1218,272.0027,88.0786,3.4874e-05,3.23e-06,0.0,0 STARLINK-3048,1 49148U 21082U   23254.59174240  .00000323  00000-0  34874-4 0  9995,2 49148  70.0014  49.1218 0003027 272.0027  88.0786 14.98331496110149,6950.188,96.107,574.157,569.949,0.0
